start=new Date('2023-05-05T00:00:00.000Z').valueOf();
sats=[{"SITE":"AFETR","CLASSIFICATION_TYPE":"U","RCS_SIZE":"LARGE","FILE":"3901186","EPHEMERIS_TYPE":"0","ELEMENT_SET_NO":"999","PERIOD":"95.437","OBJECT_NAME":"STARLINK-5185","DECAY_DATE":null,"MEAN_ANOMALY":"264.2888","SEMIMAJOR_AXIS":"6917.871","MEAN_MOTION_DOT":"0.00005564","MEAN_MOTION":"15.08843080","NORAD_CAT_ID":"54100","REF_FRAME":"TEME","BSTAR":"0.00036736000000","LAUNCH_DATE":"2022-10-20","OBJECT_ID":"2022-136BB","CENTER_NAME":"EARTH","COUNTRY_CODE":"US","MEAN_MOTION_DDOT":"0.0000000000000","RA_OF_ASC_NODE":"321.9742","OBJECT_TYPE":"PAYLOAD","GP_ID":"231275683","TLE_LINE1":"1 54100U 22136BB  23124.82327998  .00005564  00000-0  36736-3 0  9992","INCLINATION":"53.2158","ECCENTRICITY":"0.00008030","EPOCH":"2023-05-04T19:45:31.390272","PERIAPSIS":"539.180","REV_AT_EPOCH":"3000","TIME_SYSTEM":"UTC","TLE_LINE2":"2 54100  53.2158 321.9742 0000803  95.8196 264.2888 15.08843080 30001","APOAPSIS":"540.291","MEAN_ELEMENT_THEORY":"SGP4","ARG_OF_PERICENTER":"95.8196"},{"MEAN_MOTION_DOT":"0.00001068","SEMIMAJOR_AXIS":"6917.855","MEAN_ANOMALY":"266.3211","DECAY_DATE":null,"BSTAR":"0.00008517500000","REF_FRAME":"TEME","NORAD_CAT_ID":"54101","MEAN_MOTION":"15.08848290","SITE":"AFETR","CLASSIFICATION_TYPE":"U","OBJECT_NAME":"STARLINK-5204","PERIOD":"95.437","ELEMENT_SET_NO":"999","EPHEMERIS_TYPE":"0","FILE":"3901186","RCS_SIZE":"LARGE","APOAPSIS":"540.368","TLE_LINE2":"2 54101  53.2169 307.0201 0000937  93.7888 266.3211 15.08848290 30216","ARG_OF_PERICENTER":"93.7888","MEAN_ELEMENT_THEORY":"SGP4","COUNTRY_CODE":"US","CENTER_NAME":"EARTH","OBJECT_ID":"2022-136BC","LAUNCH_DATE":"2022-10-20","REV_AT_EPOCH":"3021","TIME_SYSTEM":"UTC","EPOCH":"2023-05-04T19:46:13.428192","PERIAPSIS":"539.072","ECCENTRICITY":"0.00009370","TLE_LINE1":"1 54101U 22136BC  23124.82376653  .00001068  00000-0  85175-4 0  9992","INCLINATION":"53.2169","GP_ID":"231275934","OBJECT_TYPE":"PAYLOAD","RA_OF_ASC_NODE":"307.0201","MEAN_MOTION_DDOT":"0.0000000000000"},{"TLE_LINE1":"1 54102U 22136BD  23124.87844948  .00003391  00000-0  23096-3 0  9999","INCLINATION":"53.2155","ECCENTRICITY":"0.00011320","GP_ID":"231249357","TIME_SYSTEM":"UTC","REV_AT_EPOCH":"3048","PERIAPSIS":"538.924","EPOCH":"2023-05-04T21:04:58.035072","MEAN_MOTION_DDOT":"0.0000000000000","OBJECT_TYPE":"PAYLOAD","RA_OF_ASC_NODE":"321.6089","COUNTRY_CODE":"US","LAUNCH_DATE":"2022-10-20","CENTER_NAME":"EARTH","OBJECT_ID":"2022-136BD","ARG_OF_PERICENTER":"75.2055","MEAN_ELEMENT_THEORY":"SGP4","APOAPSIS":"540.490","TLE_LINE2":"2 54102  53.2155 321.6089 0001132  75.2055 284.9062 15.08852671 30484","ELEMENT_SET_NO":"999","EPHEMERIS_TYPE":"0","OBJECT_NAME":"STARLINK-5179","PERIOD":"95.437","RCS_SIZE":"LARGE","FILE":"3901169","CLASSIFICATION_TYPE":"U","SITE":"AFETR","NORAD_CAT_ID":"54102","MEAN_MOTION":"15.08852671","BSTAR":"0.00023096000000","REF_FRAME":"TEME","SEMIMAJOR_AXIS":"6917.842","MEAN_MOTION_DOT":"0.00003391","MEAN_ANOMALY":"284.9062","DECAY_DATE":null},{"ARG_OF_PERICENTER":"81.6830","MEAN_ELEMENT_THEORY":"SGP4","APOAPSIS":"540.200","TLE_LINE2":"2 54103  53.2159 302.2199 0000686  81.6830 278.4240 15.08846506 30285","TIME_SYSTEM":"UTC","REV_AT_EPOCH":"3028","EPOCH":"2023-05-04T20:31:59.231424","PERIAPSIS":"539.251","ECCENTRICITY":"0.00006860","TLE_LINE1":"1 54103U 22136BE  23124.85554666  .00001237  00000-0  95779-4 0  9998","INCLINATION":"53.2159","GP_ID":"231274932","OBJECT_TYPE":"PAYLOAD","RA_OF_ASC_NODE":"302.2199","MEAN_MOTION_DDOT":"0.0000000000000","COUNTRY_CODE":"US","CENTER_NAME":"EARTH","OBJECT_ID":"2022-136BE","LAUNCH_DATE":"2022-10-20","BSTAR":"0.00009577900000","REF_FRAME":"TEME","NORAD_CAT_ID":"54103","MEAN_MOTION":"15.08846506","MEAN_MOTION_DOT":"0.00001237","SEMIMAJOR_AXIS":"6917.861","MEAN_ANOMALY":"278.4240","DECAY_DATE":null,"OBJECT_NAME":"STARLINK-5200","PERIOD":"95.437","ELEMENT_SET_NO":"999","EPHEMERIS_TYPE":"0","FILE":"3901186","RCS_SIZE":"LARGE","SITE":"AFETR","CLASSIFICATION_TYPE":"U"},{"TLE_LINE1":"1 54104U 22136BF  23124.83298227  .00005469  00000-0  36139-3 0  9990","INCLINATION":"53.2184","ECCENTRICITY":"0.00013910","GP_ID":"231275184","REV_AT_EPOCH":"3049","TIME_SYSTEM":"UTC","PERIAPSIS":"538.776","EPOCH":"2023-05-04T19:59:29.668128","MEAN_MOTION_DDOT":"0.0000000000000","OBJECT_TYPE":"PAYLOAD","RA_OF_ASC_NODE":"287.0897","COUNTRY_CODE":"US","LAUNCH_DATE":"2022-10-20","CENTER_NAME":"EARTH","OBJECT_ID":"2022-136BF","ARG_OF_PERICENTER":"89.0857","MEAN_ELEMENT_THEORY":"SGP4","APOAPSIS":"540.701","TLE_LINE2":"2 54104  53.2184 287.0897 0001391  89.0857 271.0294 15.08842318 30492","ELEMENT_SET_NO":"999","EPHEMERIS_TYPE":"0","OBJECT_NAME":"STARLINK-5203","PERIOD":"95.437","RCS_SIZE":"LARGE","FILE":"3901186","CLASSIFICATION_TYPE":"U","SITE":"AFETR","NORAD_CAT_ID":"54104","MEAN_MOTION":"15.08842318","BSTAR":"0.00036139000000","REF_FRAME":"TEME","SEMIMAJOR_AXIS":"6917.873","MEAN_MOTION_DOT":"0.00005469","MEAN_ANOMALY":"271.0294","DECAY_DATE":null},{"SITE":"AFWTR","CLASSIFICATION_TYPE":"U","PERIOD":"95.439","OBJECT_NAME":"STARLINK-5290","EPHEMERIS_TYPE":"0","ELEMENT_SET_NO":"999","FILE":"3901186","RCS_SIZE":"LARGE","MEAN_MOTION_DOT":"0.00008828","SEMIMAJOR_AXIS":"6917.970","DECAY_DATE":null,"MEAN_ANOMALY":"264.7738","REF_FRAME":"TEME","BSTAR":"0.00057248000000","MEAN_MOTION":"15.08810808","NORAD_CAT_ID":"54157","COUNTRY_CODE":"US","OBJECT_ID":"2022-141A","CENTER_NAME":"EARTH","LAUNCH_DATE":"2022-10-28","EPOCH":"2023-05-04T21:36:51.626592","PERIAPSIS":"538.865","REV_AT_EPOCH":"2874","TIME_SYSTEM":"UTC","GP_ID":"231275940","TLE_LINE1":"1 54157U 22141A   23124.90059753  .00008828  00000-0  57248-3 0  9997","ECCENTRICITY":"0.00014020","INCLINATION":"53.2174","RA_OF_ASC_NODE":"1.9730","OBJECT_TYPE":"PAYLOAD","MEAN_MOTION_DDOT":"0.0000000000000","APOAPSIS":"540.805","TLE_LINE2":"2 54157  53.2174   1.9730 0001402  95.3414 264.7738 15.08810808 28746","ARG_OF_PERICENTER":"95.3414","MEAN_ELEMENT_THEORY":"SGP4"},{"OBJECT_NAME":"STARLINK-5297","PERIOD":"95.437","ELEMENT_SET_NO":"999","EPHEMERIS_TYPE":"0","FILE":"3901186","RCS_SIZE":"LARGE","CLASSIFICATION_TYPE":"U","SITE":"AFWTR","BSTAR":"0.00013536000000","REF_FRAME":"TEME","NORAD_CAT_ID":"54158","MEAN_MOTION":"15.08847649","MEAN_MOTION_DOT":"0.00001867","SEMIMAJOR_AXIS":"6917.857","MEAN_ANOMALY":"276.1602","DECAY_DATE":null,"TIME_SYSTEM":"UTC","REV_AT_EPOCH":"2874","EPOCH":"2023-05-04T21:47:27.403584","PERIAPSIS":"538.805","ECCENTRICITY":"0.00013250","TLE_LINE1":"1 54158U 22141B   23124.90795606  .00001867  00000-0  13536-3 0  9990","INCLINATION":"53.2174","GP_ID":"231274186","OBJECT_TYPE":"PAYLOAD","RA_OF_ASC_NODE":"2.0200","MEAN_MOTION_DDOT":"0.0000000000000","COUNTRY_CODE":"US","CENTER_NAME":"EARTH","OBJECT_ID":"2022-141B","LAUNCH_DATE":"2022-10-28","ARG_OF_PERICENTER":"83.9541","MEAN_ELEMENT_THEORY":"SGP4","APOAPSIS":"540.639","TLE_LINE2":"2 54158  53.2174   2.0200 0001325  83.9541 276.1602 15.08847649 28749"},{"PERIOD":"95.541","OBJECT_NAME":"STARLINK-5294","EPHEMERIS_TYPE":"0","ELEMENT_SET_NO":"999","FILE":"3900953","RCS_SIZE":"LARGE","SITE":"AFWTR","CLASSIFICATION_TYPE":"U","REF_FRAME":"TEME","BSTAR":"0.00007624700000","MEAN_MOTION":"15.07206748","NORAD_CAT_ID":"54159","MEAN_MOTION_DOT":"0.00000878","SEMIMAJOR_AXIS":"6922.877","DECAY_DATE":null,"MEAN_ANOMALY":"269.1328","PERIAPSIS":"543.828","EPOCH":"2023-05-04T21:22:35.645376","REV_AT_EPOCH":"2874","TIME_SYSTEM":"UTC","GP_ID":"231244401","ECCENTRICITY":"0.00013200","TLE_LINE1":"1 54159U 22141C   23124.89069034  .00000878  00000-0  76247-4 0  9998","INCLINATION":"53.2179","RA_OF_ASC_NODE":"1.9194","OBJECT_TYPE":"PAYLOAD","MEAN_MOTION_DDOT":"0.0000000000000","COUNTRY_CODE":"US","OBJECT_ID":"2022-141C","CENTER_NAME":"EARTH","LAUNCH_DATE":"2022-10-28","ARG_OF_PERICENTER":"90.9815","MEAN_ELEMENT_THEORY":"SGP4","APOAPSIS":"545.656","TLE_LINE2":"2 54159  53.2179   1.9194 0001320  90.9815 269.1328 15.07206748 28747"},{"SITE":"AFWTR","CLASSIFICATION_TYPE":"U","PERIOD":"95.437","OBJECT_NAME":"STARLINK-5233","EPHEMERIS_TYPE":"0","ELEMENT_SET_NO":"999","FILE":"3901186","RCS_SIZE":"LARGE","MEAN_MOTION_DOT":"-0.00001311","SEMIMAJOR_AXIS":"6917.862","DECAY_DATE":null,"MEAN_ANOMALY":"285.4690","REF_FRAME":"TEME","BSTAR":"-0.00006430000000","MEAN_MOTION":"15.08846109","NORAD_CAT_ID":"54160","COUNTRY_CODE":"US","OBJECT_ID":"2022-141D","CENTER_NAME":"EARTH","LAUNCH_DATE":"2022-10-28","EPOCH":"2023-05-04T19:38:15.533376","PERIAPSIS":"539.048","TIME_SYSTEM":"UTC","REV_AT_EPOCH":"2936","GP_ID":"231275190","TLE_LINE1":"1 54160U 22141D   23124.81823534 -.00001311  00000-0 -64300-4 0  9997","INCLINATION":"53.2184","ECCENTRICITY":"0.00009810","RA_OF_ASC_NODE":"317.2515","OBJECT_TYPE":"PAYLOAD","MEAN_MOTION_DDOT":"0.0000000000000","APOAPSIS":"540.405","TLE_LINE2":"2 54160  53.2184 317.2515 0000981  74.6410 285.4690 15.08846109 29361","ARG_OF_PERICENTER":"74.6410","MEAN_ELEMENT_THEORY":"SGP4"},{"MEAN_ELEMENT_THEORY":"SGP4","ARG_OF_PERICENTER":"83.0583","TLE_LINE2":"2 54161  53.2172   1.9949 0001234  83.0583 277.0550 15.08840847 28740","APOAPSIS":"540.596","MEAN_MOTION_DDOT":"0.0000000000000","OBJECT_TYPE":"PAYLOAD","RA_OF_ASC_NODE":"1.9949","INCLINATION":"53.2172","TLE_LINE1":"1 54161U 22141E   23124.90427381  .00000988  00000-0  80128-4 0  9991","ECCENTRICITY":"0.00012340","GP_ID":"231275441","TIME_SYSTEM":"UTC","REV_AT_EPOCH":"2874","EPOCH":"2023-05-04T21:42:09.257184","PERIAPSIS":"538.889","LAUNCH_DATE":"2022-10-28","CENTER_NAME":"EARTH","OBJECT_ID":"2022-141E","COUNTRY_CODE":"US","NORAD_CAT_ID":"54161","MEAN_MOTION":"15.08840847","BSTAR":"0.00008012800000","REF_FRAME":"TEME","MEAN_ANOMALY":"277.0550","DECAY_DATE":null,"SEMIMAJOR_AXIS":"6917.878","MEAN_MOTION_DOT":"0.00000988","RCS_SIZE":"LARGE","FILE":"3901186","ELEMENT_SET_NO":"999","EPHEMERIS_TYPE":"0","OBJECT_NAME":"STARLINK-5269","PERIOD":"95.438","CLASSIFICATION_TYPE":"U","SITE":"AFWTR"}];
